{"type":"FeatureCollection","features":[{"type":"Feature","properties":{"id":"qingzang-climate","name":"青藏走廊气候环境观测场 · 样例范围","category":"climate","corridorId":"qingzang","sourceKind":"simulated-layout","description":"工程演示用确定性模拟范围；并非实际建设边界。"},"geometry":{"type":"Polygon","coordinates":[[[94.066025,35.551953],[94.062858,35.568315],[94.053136,35.583622],[94.037521,35.596829],[94.017074,35.607033],[93.99319,35.613537],[93.967499,35.615896],[93.941756,35.61395],[93.91772,35.60783],[93.897031,35.597956],[93.8811,35.585003],[93.871012,35.569854],[93.867452,35.553545],[93.870659,35.537187],[93.880409,35.521894],[93.896037,35.508707],[93.916475,35.498524],[93.940332,35.492035],[93.965984,35.489682],[93.991687,35.491624],[94.015694,35.497729],[94.036372,35.507583],[94.052311,35.520517],[94.062427,35.535649],[94.066025,35.551953]]]}},{"type":"Feature","properties":{"id":"qingzang-materials","name":"青藏走廊结构材料观测场 · 样例范围","category":"materials","corridorId":"qingzang","sourceKind":"simulated-layout","description":"工程演示用确定性模拟范围；并非实际建设边界。"},"geometry":{"type":"Polygon","coordinates":[[[92.459207,33.859648],[92.455788,33.875973],[92.445968,33.891156],[92.430414,33.90416],[92.410184,33.914098],[92.386659,33.92029],[92.361444,33.922313],[92.336261,33.920028],[92.312831,33.913593],[92.292751,33.903446],[92.277393,33.890282],[92.2678,33.874999],[92.264624,33.858641],[92.268079,33.842322],[92.277924,33.827153],[92.293487,33.814168],[92.313706,33.80425],[92.337204,33.798071],[92.362383,33.796053],[92.38753,33.798331],[92.410935,33.804752],[92.431006,33.814879],[92.446376,33.828025],[92.455995,33.843294],[92.459207,33.859648]]]}},{"type":"Feature","properties":{"id":"qingzang-engineering","name":"青藏走廊实体工程观测场 · 样例范围","category":"engineering","corridorId":"qingzang","sourceKind":"simulated-layout","description":"工程演示用确定性模拟范围；并非实际建设边界。"},"geometry":{"type":"Polygon","coordinates":[[[91.900074,32.459791],[91.896612,32.476103],[91.886858,32.491246],[91.871473,32.504186],[91.851507,32.51404],[91.828319,32.520134],[91.803494,32.522052],[91.778726,32.519662],[91.755706,32.513129],[91.736007,32.502898],[91.720969,32.489669],[91.711619,32.474345],[91.708589,32.457972],[91.712084,32.441666],[91.721861,32.426537],[91.737253,32.413615],[91.757209,32.403779],[91.780371,32.397697],[91.805162,32.395783],[91.829897,32.398167],[91.852893,32.404686],[91.872586,32.414899],[91.887634,32.42811],[91.89701,32.443421],[91.900074,32.459791]]]}},{"type":"Feature","properties":{"id":"qingkang-climate","name":"青康走廊气候环境观测场 · 样例范围","category":"climate","corridorId":"qingkang","sourceKind":"simulated-layout","description":"工程演示用确定性模拟范围；并非实际建设边界。"},"geometry":{"type":"Polygon","coordinates":[[[99.609926,35.536297],[99.606667,35.552649],[99.59686,35.56792],[99.581172,35.581068],[99.560669,35.591195],[99.536752,35.597609],[99.511051,35.599872],[99.485323,35.597827],[99.461325,35.591616],[99.440695,35.581663],[99.42484,35.568649],[99.414839,35.553461],[99.411372,35.537137],[99.414671,35.52079],[99.424507,35.505534],[99.440207,35.492406],[99.460699,35.482299],[99.484589,35.4759],[99.510251,35.473644],[99.53594,35.475683],[99.559909,35.481879],[99.580528,35.491812],[99.596393,35.504807],[99.606421,35.519979],[99.609926,35.536297]]]}},{"type":"Feature","properties":{"id":"qingkang-materials","name":"青康走廊结构材料观测场 · 样例范围","category":"materials","corridorId":"qingkang","sourceKind":"simulated-layout","description":"工程演示用确定性模拟范围；并非实际建设边界。"},"geometry":{"type":"Polygon","coordinates":[[[98.220827,34.77742],[98.217321,34.793735],[98.207348,34.808894],[98.191584,34.821863],[98.171103,34.831757],[98.147302,34.837898],[98.121805,34.839867],[98.096354,34.83753],[98.072688,34.831046],[98.052421,34.820859],[98.036935,34.807665],[98.027285,34.792364],[98.024126,34.776002],[98.027669,34.759693],[98.037668,34.744549],[98.053441,34.7316],[98.07391,34.721726],[98.097683,34.715598],[98.123142,34.713633],[98.148555,34.715965],[98.172196,34.722433],[98.192454,34.732601],[98.207951,34.745776],[98.217629,34.761062],[98.220827,34.77742]]]}},{"type":"Feature","properties":{"id":"qingkang-engineering","name":"青康走廊实体工程观测场 · 样例范围","category":"engineering","corridorId":"qingkang","sourceKind":"simulated-layout","description":"工程演示用确定性模拟范围；并非实际建设边界。"},"geometry":{"type":"Polygon","coordinates":[[[97.352376,33.467006],[97.348767,33.483296],[97.338802,33.498388],[97.323159,33.511252],[97.302902,33.521008],[97.279413,33.52699],[97.254295,33.528789],[97.229265,33.526283],[97.206031,33.519642],[97.186178,33.509321],[97.171061,33.496025],[97.161708,33.480662],[97.158755,33.464281],[97.162398,33.447997],[97.172386,33.43292],[97.188037,33.420076],[97.208282,33.410338],[97.231743,33.404368],[97.256825,33.402572],[97.281821,33.405072],[97.305031,33.411698],[97.324877,33.421999],[97.340006,33.435277],[97.349386,33.450628],[97.352376,33.467006]]]}}]}
